{
    "links": {
        "self": "http://www.neowsapp.com/rest/v1/neo/3607627?api_key=iIulBulltgU6a56xZRHN4H3l9WmuAYTsLGpBGhQ2"
    },
    "id": "3607627",
    "neo_reference_id": "3607627",
    "name": "(2012 PP24)",
    "designation": "2012 PP24",
    "nasa_jpl_url": "http://ssd.jpl.nasa.gov/sbdb.cgi?sstr=3607627",
    "absolute_magnitude_h": 22.2,
    "estimated_diameter": {
        "kilometers": {
            "estimated_diameter_min": 0.096506147,
            "estimated_diameter_max": 0.2157943048
        },
        "meters": {
            "estimated_diameter_min": 96.5061469579,
            "estimated_diameter_max": 215.7943048444
        },
        "miles": {
            "estimated_diameter_min": 0.059966121,
            "estimated_diameter_max": 0.134088323
        },
        "feet": {
            "estimated_diameter_min": 316.6212271853,
            "estimated_diameter_max": 707.9865871058
        }
    },
    "is_potentially_hazardous_asteroid": false,
    "close_approach_data": [
        {
            "close_approach_date": "2012-08-25",
            "close_approach_date_full": "2012-Aug-25 23:40",
            "epoch_date_close_approach": 1345938000000,
            "relative_velocity": {
                "kilometers_per_second": "4.7567135946",
                "kilometers_per_hour": "17124.1689405109",
                "miles_per_hour": "10640.2926397302"
            },
            "miss_distance": {
                "astronomical": "0.1513368143",
                "lunar": "58.8700207627",
                "kilometers": "22639665.071865541",
                "miles": "14067635.5507288258"
            },
            "orbiting_body": "Earth"
        },
        {
            "close_approach_date": "2012-08-26",
            "close_approach_date_full": "2012-Aug-26 00:01",
            "epoch_date_close_approach": 1345939260000,
            "relative_velocity": {
                "kilometers_per_second": "4.7568060135",
                "kilometers_per_hour": "17124.5016486182",
                "miles_per_hour": "10640.4993716094"
            },
            "miss_distance": {
                "astronomical": "0.151336827",
                "lunar": "58.870025703",
                "kilometers": "22639666.97175849",
                "miles": "14067636.731267562"
            },
            "orbiting_body": "Earth"
        }
    ],
    "orbital_data": {
        "orbit_id": "25",
        "orbit_determination_date": "2017-04-06 08:49:17",
        "first_observation_date": "2012-08-15",
        "last_observation_date": "2012-09-17",
        "data_arc_in_days": 33,
        "observations_used": 167,
        "orbit_uncertainty": "7",
        "minimum_orbit_intersection": ".150092",
        "jupiter_tisserand_invariant": "3.559",
        "epoch_osculation": "2459000.5",
        "eccentricity": ".4602724203051872",
        "semi_major_axis": "2.147366979039752",
        "inclination": "4.971179495702748",
        "ascending_node_longitude": "164.0229368943518",
        "orbital_period": "1149.364641601956",
        "perihelion_distance": "1.158993182313687",
        "perihelion_argument": "169.6067980475744",
        "aphelion_distance": "3.135740775765818",
        "perihelion_time": "2458463.910549996830",
        "mean_anomaly": "168.0686833483084",
        "mean_motion": ".3132165258696673",
        "equinox": "J2000",
        "orbit_class": {
            "orbit_class_type": "AMO",
            "orbit_class_description": "Near-Earth asteroid orbits similar to that of 1221 Amor",
            "orbit_class_range": "1.017 AU < q (perihelion) < 1.3 AU"
        }
    },
    "is_sentry_object": false
}